{
"type": "FeatureCollection",
"name": "Briance",
"crs": { "type": "name", "properties": { "name": "urn:ogc:def:crs:OGC:1.3:CRS84" } },
"features": [
{ "type": "Feature", "properties": { "grdc_no": 6123430.0, "river": "BRIANCE", "station": "CONDAT-SUR-VIENNE (CHAMBON VEYRINAS)", "area": 603.09, "altitude": 210.119, "lat_org": 45.7569, "long_org": 1.2404, "lat_pp": 45.75667, "long_pp": 1.24083, "dist_km": 0.0, "area_calc": 604.0, "quality": "High", "type": "Automatic", "comment": "Area difference <= 5% and distance <= 5 km", "source": "merit" }, "geometry": { "type": "Polygon", "coordinates": [ [ [ 1.2429, 45.7212 ], [ 1.2429, 45.7238 ], [ 1.2412, 45.7238 ], [ 1.2412, 45.7246 ], [ 1.2404, 45.7246 ], [ 1.2404, 45.7254 ], [ 1.2396, 45.7254 ], [ 1.2396, 45.7271 ], [ 1.2388, 45.7271 ], [ 1.2388, 45.7287 ], [ 1.2337, 45.7287 ], [ 1.2337, 45.7296 ], [ 1.2312, 45.7296 ], [ 1.2312, 45.7304 ], [ 1.2304, 45.7304 ], [ 1.2304, 45.7313 ], [ 1.2296, 45.7313 ], [ 1.2296, 45.7329 ], [ 1.2312, 45.7329 ], [ 1.2312, 45.7338 ], [ 1.2329, 45.7338 ], [ 1.2329, 45.7346 ], [ 1.2337, 45.7346 ], [ 1.2337, 45.7354 ], [ 1.2346, 45.7354 ], [ 1.2346, 45.7362 ], [ 1.2354, 45.7362 ], [ 1.2354, 45.7371 ], [ 1.2363, 45.7371 ], [ 1.2363, 45.7379 ], [ 1.2371, 45.7379 ], [ 1.2371, 45.7388 ], [ 1.2363, 45.7388 ], [ 1.2363, 45.7429 ], [ 1.2371, 45.7429 ], [ 1.2371, 45.7463 ], [ 1.2388, 45.7463 ], [ 1.2388, 45.7488 ], [ 1.2396, 45.7488 ], [ 1.2396, 45.7504 ], [ 1.2388, 45.7504 ], [ 1.2388, 45.7512 ], [ 1.2379, 45.7512 ], [ 1.2379, 45.7537 ], [ 1.2388, 45.7537 ], [ 1.2388, 45.7546 ], [ 1.2396, 45.7546 ], [ 1.2396, 45.7554 ], [ 1.2404, 45.7554 ], [ 1.2404, 45.7579 ], [ 1.2412, 45.7579 ], [ 1.2412, 45.7587 ], [ 1.2421, 45.7587 ], [ 1.2421, 45.7604 ], [ 1.2412, 45.7604 ], [ 1.2412, 45.7629 ], [ 1.2421, 45.7629 ], [ 1.2421, 45.7638 ], [ 1.2429, 45.7638 ], [ 1.2429, 45.7654 ], [ 1.2437, 45.7654 ], [ 1.2437, 45.7662 ], [ 1.2446, 45.7662 ], [ 1.2446, 45.7671 ], [ 1.2463, 45.7671 ], [ 1.2463, 45.7679 ], [ 1.2471, 45.7679 ], [ 1.2471, 45.7687 ], [ 1.2488, 45.7687 ], [ 1.2488, 45.7696 ], [ 1.2504, 45.7696 ], [ 1.2504, 45.7704 ], [ 1.2554, 45.7704 ], [ 1.2554, 45.7696 ], [ 1.2571, 45.7696 ], [ 1.2571, 45.7704 ], [ 1.2596, 45.7704 ], [ 1.2596, 45.7713 ], [ 1.2604, 45.7713 ], [ 1.2604, 45.7721 ], [ 1.2621, 45.7721 ], [ 1.2621, 45.7737 ], [ 1.2637, 45.7737 ], [ 1.2637, 45.7746 ], [ 1.2663, 45.7746 ], [ 1.2663, 45.7754 ], [ 1.2671, 45.7754 ], [ 1.2671, 45.7762 ], [ 1.2679, 45.7762 ], [ 1.2679, 45.7771 ], [ 1.2696, 45.7771 ], [ 1.2696, 45.7779 ], [ 1.2746, 45.7779 ], [ 1.2746, 45.7771 ], [ 1.2771, 45.7771 ], [ 1.2771, 45.7779 ], [ 1.2804, 45.7779 ], [ 1.2804, 45.7771 ], [ 1.2821, 45.7771 ], [ 1.2821, 45.7779 ], [ 1.2829, 45.7779 ], [ 1.2829, 45.7771 ], [ 1.2837, 45.7771 ], [ 1.2837, 45.7762 ], [ 1.2846, 45.7762 ], [ 1.2846, 45.7771 ], [ 1.2854, 45.7771 ], [ 1.2854, 45.7779 ], [ 1.2937, 45.7779 ], [ 1.2937, 45.7771 ], [ 1.2946, 45.7771 ], [ 1.2946, 45.7779 ], [ 1.2962, 45.7779 ], [ 1.2962, 45.7788 ], [ 1.2979, 45.7788 ], [ 1.2979, 45.7796 ], [ 1.2988, 45.7796 ], [ 1.2988, 45.7804 ], [ 1.3004, 45.7804 ], [ 1.3004, 45.7812 ], [ 1.3021, 45.7812 ], [ 1.3021, 45.7821 ], [ 1.3029, 45.7821 ], [ 1.3029, 45.7812 ], [ 1.3054, 45.7812 ], [ 1.3054, 45.7804 ], [ 1.3071, 45.7804 ], [ 1.3071, 45.7796 ], [ 1.3079, 45.7796 ], [ 1.3079, 45.7788 ], [ 1.3088, 45.7788 ], [ 1.3088, 45.7779 ], [ 1.3096, 45.7779 ], [ 1.3096, 45.7788 ], [ 1.3121, 45.7788 ], [ 1.3121, 45.7796 ], [ 1.3137, 45.7796 ], [ 1.3137, 45.7788 ], [ 1.3221, 45.7788 ], [ 1.3221, 45.7779 ], [ 1.3229, 45.7779 ], [ 1.3229, 45.7788 ], [ 1.3271, 45.7788 ], [ 1.3271, 45.7779 ], [ 1.3296, 45.7779 ], [ 1.3296, 45.7788 ], [ 1.3321, 45.7788 ], [ 1.3321, 45.7796 ], [ 1.3354, 45.7796 ], [ 1.3354, 45.7804 ], [ 1.3379, 45.7804 ], [ 1.3379, 45.7804 ], [ 1.3388, 45.7804 ], [ 1.3388, 45.7812 ], [ 1.3396, 45.7812 ], [ 1.3396, 45.7821 ], [ 1.3413, 45.7821 ], [ 1.3413, 45.7829 ], [ 1.3438, 45.7829 ], [ 1.3438, 45.7821 ], [ 1.3479, 45.7821 ], [ 1.3479, 45.7812 ], [ 1.3504, 45.7812 ], [ 1.3504, 45.7796 ], [ 1.3513, 45.7796 ], [ 1.3513, 45.7788 ], [ 1.3521, 45.7788 ], [ 1.3521, 45.7779 ], [ 1.3538, 45.7779 ], [ 1.3538, 45.7771 ], [ 1.3546, 45.7771 ], [ 1.3546, 45.7762 ], [ 1.3554, 45.7762 ], [ 1.3554, 45.7771 ], [ 1.3571, 45.7771 ], [ 1.3571, 45.7779 ], [ 1.3579, 45.7779 ], [ 1.3579, 45.7771 ], [ 1.3596, 45.7771 ], [ 1.3596, 45.7779 ], [ 1.3613, 45.7779 ], [ 1.3613, 45.7788 ], [ 1.3629, 45.7788 ], [ 1.3629, 45.7804 ], [ 1.3638, 45.7804 ], [ 1.3638, 45.7812 ], [ 1.3662, 45.7812 ], [ 1.3662, 45.7821 ], [ 1.3671, 45.7821 ], [ 1.3671, 45.7829 ], [ 1.3687, 45.7829 ], [ 1.3687, 45.7821 ], [ 1.3696, 45.7821 ], [ 1.3696, 45.7812 ], [ 1.3721, 45.7812 ], [ 1.3721, 45.7821 ], [ 1.3729, 45.7821 ], [ 1.3729, 45.7829 ], [ 1.3746, 45.7829 ], [ 1.3746, 45.7837 ], [ 1.3754, 45.7837 ], [ 1.3754, 45.7846 ], [ 1.3771, 45.7846 ], [ 1.3771, 45.7854 ], [ 1.3787, 45.7854 ], [ 1.3787, 45.7863 ], [ 1.3804, 45.7863 ], [ 1.3804, 45.7871 ], [ 1.3813, 45.7871 ], [ 1.3813, 45.7888 ], [ 1.3829, 45.7888 ], [ 1.3829, 45.7896 ], [ 1.3838, 45.7896 ], [ 1.3838, 45.7912 ], [ 1.3871, 45.7912 ], [ 1.3871, 45.7921 ], [ 1.3887, 45.7921 ], [ 1.3887, 45.7929 ], [ 1.3904, 45.7929 ], [ 1.3904, 45.7938 ], [ 1.3954, 45.7938 ], [ 1.3954, 45.7946 ], [ 1.3987, 45.7946 ], [ 1.3987, 45.7938 ], [ 1.3996, 45.7938 ], [ 1.3996, 45.7946 ], [ 1.4004, 45.7946 ], [ 1.4004, 45.7938 ], [ 1.4013, 45.7938 ], [ 1.4013, 45.7929 ], [ 1.4038, 45.7929 ], [ 1.4038, 45.7938 ], [ 1.4054, 45.7938 ], [ 1.4054, 45.7946 ], [ 1.4087, 45.7946 ], [ 1.4087, 45.7938 ], [ 1.4096, 45.7938 ], [ 1.4096, 45.7929 ], [ 1.4104, 45.7929 ], [ 1.4104, 45.7921 ], [ 1.4196, 45.7921 ], [ 1.4196, 45.7929 ], [ 1.4204, 45.7929 ], [ 1.4204, 45.7938 ], [ 1.4212, 45.7938 ], [ 1.4212, 45.7946 ], [ 1.4221, 45.7946 ], [ 1.4221, 45.7954 ], [ 1.4238, 45.7954 ], [ 1.4238, 45.7963 ], [ 1.4263, 45.7963 ], [ 1.4263, 45.7979 ], [ 1.4271, 45.7979 ], [ 1.4271, 45.7987 ], [ 1.4279, 45.7987 ], [ 1.4279, 45.8004 ], [ 1.4321, 45.8004 ], [ 1.4321, 45.8021 ], [ 1.4338, 45.8021 ], [ 1.4338, 45.8013 ], [ 1.4363, 45.8013 ], [ 1.4363, 45.8004 ], [ 1.4371, 45.8004 ], [ 1.4371, 45.7996 ], [ 1.4379, 45.7996 ], [ 1.4379, 45.7987 ], [ 1.4387, 45.7987 ], [ 1.4387, 45.7979 ], [ 1.4396, 45.7979 ], [ 1.4396, 45.7971 ], [ 1.4446, 45.7971 ], [ 1.4446, 45.7963 ], [ 1.4454, 45.7963 ], [ 1.4454, 45.7954 ], [ 1.4479, 45.7954 ], [ 1.4479, 45.7946 ], [ 1.4496, 45.7946 ], [ 1.4496, 45.7954 ], [ 1.4504, 45.7954 ], [ 1.4504, 45.7963 ], [ 1.4512, 45.7963 ], [ 1.4512, 45.7954 ], [ 1.4546, 45.7954 ], [ 1.4546, 45.7946 ], [ 1.4563, 45.7946 ], [ 1.4563, 45.7921 ], [ 1.4571, 45.7921 ], [ 1.4571, 45.7912 ], [ 1.4579, 45.7912 ], [ 1.4579, 45.7904 ], [ 1.4621, 45.7904 ], [ 1.4621, 45.7896 ], [ 1.4663, 45.7896 ], [ 1.4663, 45.7888 ], [ 1.4671, 45.7888 ], [ 1.4671, 45.7879 ], [ 1.4712, 45.7879 ], [ 1.4712, 45.7871 ], [ 1.4721, 45.7871 ], [ 1.4721, 45.7854 ], [ 1.4729, 45.7854 ], [ 1.4729, 45.7846 ], [ 1.4746, 45.7846 ], [ 1.4746, 45.7837 ], [ 1.4763, 45.7837 ], [ 1.4763, 45.7829 ], [ 1.4779, 45.7829 ], [ 1.4779, 45.7821 ], [ 1.4788, 45.7821 ], [ 1.4788, 45.7812 ], [ 1.4812, 45.7812 ], [ 1.4812, 45.7821 ], [ 1.4821, 45.7821 ], [ 1.4821, 45.7812 ], [ 1.4846, 45.7812 ], [ 1.4846, 45.7804 ], [ 1.4863, 45.7804 ], [ 1.4863, 45.7812 ], [ 1.4879, 45.7812 ], [ 1.4879, 45.7821 ], [ 1.4896, 45.7821 ], [ 1.4896, 45.7812 ], [ 1.4904, 45.7812 ], [ 1.4904, 45.7788 ], [ 1.4921, 45.7788 ], [ 1.4921, 45.7779 ], [ 1.4929, 45.7779 ], [ 1.4929, 45.7771 ], [ 1.4937, 45.7771 ], [ 1.4937, 45.7746 ], [ 1.4929, 45.7746 ], [ 1.4929, 45.7737 ], [ 1.4937, 45.7737 ], [ 1.4937, 45.7721 ], [ 1.4971, 45.7721 ], [ 1.4971, 45.7713 ], [ 1.4996, 45.7713 ], [ 1.4996, 45.7704 ], [ 1.5004, 45.7704 ], [ 1.5004, 45.7687 ], [ 1.5046, 45.7687 ], [ 1.5046, 45.7679 ], [ 1.5079, 45.7679 ], [ 1.5079, 45.7646 ], [ 1.5071, 45.7646 ], [ 1.5071, 45.7638 ], [ 1.5063, 45.7638 ], [ 1.5063, 45.7629 ], [ 1.5046, 45.7629 ], [ 1.5046, 45.7612 ], [ 1.5037, 45.7612 ], [ 1.5037, 45.7604 ], [ 1.5021, 45.7604 ], [ 1.5021, 45.7596 ], [ 1.5012, 45.7596 ], [ 1.5012, 45.7587 ], [ 1.5021, 45.7587 ], [ 1.5021, 45.7571 ], [ 1.5029, 45.7571 ], [ 1.5029, 45.7563 ], [ 1.5037, 45.7563 ], [ 1.5037, 45.7554 ], [ 1.5046, 45.7554 ], [ 1.5046, 45.7546 ], [ 1.5054, 45.7546 ], [ 1.5054, 45.7537 ], [ 1.5063, 45.7537 ], [ 1.5063, 45.7529 ], [ 1.5071, 45.7529 ], [ 1.5071, 45.7521 ], [ 1.5063, 45.7521 ], [ 1.5063, 45.7496 ], [ 1.5071, 45.7496 ], [ 1.5071, 45.7479 ], [ 1.5088, 45.7479 ], [ 1.5088, 45.7471 ], [ 1.5096, 45.7471 ], [ 1.5096, 45.7454 ], [ 1.5112, 45.7454 ], [ 1.5112, 45.7446 ], [ 1.5137, 45.7446 ], [ 1.5137, 45.7454 ], [ 1.5146, 45.7454 ], [ 1.5146, 45.7437 ], [ 1.5154, 45.7437 ], [ 1.5154, 45.7429 ], [ 1.5171, 45.7429 ], [ 1.5171, 45.7437 ], [ 1.5204, 45.7437 ], [ 1.5204, 45.7446 ], [ 1.5212, 45.7446 ], [ 1.5212, 45.7437 ], [ 1.5229, 45.7437 ], [ 1.5229, 45.7429 ], [ 1.5237, 45.7429 ], [ 1.5237, 45.7421 ], [ 1.5246, 45.7421 ], [ 1.5246, 45.7429 ], [ 1.5271, 45.7429 ], [ 1.5271, 45.7413 ], [ 1.5279, 45.7413 ], [ 1.5279, 45.7404 ], [ 1.5288, 45.7404 ], [ 1.5288, 45.7388 ], [ 1.5304, 45.7388 ], [ 1.5304, 45.7379 ], [ 1.5321, 45.7379 ], [ 1.5321, 45.7371 ], [ 1.5329, 45.7371 ], [ 1.5329, 45.7354 ], [ 1.5337, 45.7354 ], [ 1.5337, 45.7346 ], [ 1.5329, 45.7346 ], [ 1.5329, 45.7321 ], [ 1.5321, 45.7321 ], [ 1.5321, 45.7313 ], [ 1.5329, 45.7313 ], [ 1.5329, 45.7304 ], [ 1.5354, 45.7304 ], [ 1.5354, 45.7296 ], [ 1.5371, 45.7296 ], [ 1.5371, 45.7287 ], [ 1.5379, 45.7287 ], [ 1.5379, 45.7254 ], [ 1.5388, 45.7254 ], [ 1.5388, 45.7238 ], [ 1.5396, 45.7238 ], [ 1.5396, 45.7229 ], [ 1.5404, 45.7229 ], [ 1.5404, 45.7212 ], [ 1.5413, 45.7212 ], [ 1.5413, 45.7204 ], [ 1.5421, 45.7204 ], [ 1.5421, 45.7196 ], [ 1.5437, 45.7196 ], [ 1.5437, 45.7188 ], [ 1.5529, 45.7188 ], [ 1.5529, 45.7179 ], [ 1.5546, 45.7179 ], [ 1.5546, 45.7171 ], [ 1.5554, 45.7171 ], [ 1.5554, 45.7188 ], [ 1.5562, 45.7188 ], [ 1.5562, 45.7196 ], [ 1.5588, 45.7196 ], [ 1.5588, 45.7188 ], [ 1.5613, 45.7188 ], [ 1.5613, 45.7179 ], [ 1.5621, 45.7179 ], [ 1.5621, 45.7171 ], [ 1.5629, 45.7171 ], [ 1.5629, 45.7163 ], [ 1.5654, 45.7163 ], [ 1.5654, 45.7154 ], [ 1.5679, 45.7154 ], [ 1.5679, 45.7146 ], [ 1.5696, 45.7146 ], [ 1.5696, 45.7121 ], [ 1.5688, 45.7121 ], [ 1.5688, 45.7112 ], [ 1.5696, 45.7112 ], [ 1.5696, 45.7104 ], [ 1.5704, 45.7104 ], [ 1.5704, 45.7088 ], [ 1.5713, 45.7088 ], [ 1.5713, 45.7046 ], [ 1.5721, 45.7046 ], [ 1.5721, 45.7037 ], [ 1.5729, 45.7037 ], [ 1.5729, 45.7021 ], [ 1.5737, 45.7021 ], [ 1.5737, 45.7013 ], [ 1.5746, 45.7013 ], [ 1.5746, 45.7004 ], [ 1.5754, 45.7004 ], [ 1.5754, 45.6987 ], [ 1.5762, 45.6987 ], [ 1.5762, 45.6979 ], [ 1.5804, 45.6979 ], [ 1.5804, 45.6971 ], [ 1.5813, 45.6971 ], [ 1.5813, 45.6954 ], [ 1.5821, 45.6954 ], [ 1.5821, 45.6938 ], [ 1.5837, 45.6938 ], [ 1.5837, 45.6929 ], [ 1.5879, 45.6929 ], [ 1.5879, 45.6921 ], [ 1.5888, 45.6921 ], [ 1.5888, 45.6896 ], [ 1.5879, 45.6896 ], [ 1.5879, 45.6863 ], [ 1.5888, 45.6863 ], [ 1.5888, 45.6854 ], [ 1.5896, 45.6854 ], [ 1.5896, 45.6846 ], [ 1.5904, 45.6846 ], [ 1.5904, 45.6838 ], [ 1.5921, 45.6838 ], [ 1.5921, 45.6829 ], [ 1.5929, 45.6829 ], [ 1.5929, 45.6821 ], [ 1.5938, 45.6821 ], [ 1.5938, 45.6812 ], [ 1.5946, 45.6812 ], [ 1.5946, 45.6804 ], [ 1.5954, 45.6804 ], [ 1.5954, 45.6796 ], [ 1.5962, 45.6796 ], [ 1.5962, 45.6788 ], [ 1.5979, 45.6788 ], [ 1.5979, 45.6779 ], [ 1.5987, 45.6779 ], [ 1.5987, 45.6771 ], [ 1.6013, 45.6771 ], [ 1.6013, 45.6779 ], [ 1.6029, 45.6779 ], [ 1.6029, 45.6788 ], [ 1.6062, 45.6788 ], [ 1.6062, 45.6779 ], [ 1.6079, 45.6779 ], [ 1.6079, 45.6788 ], [ 1.6087, 45.6788 ], [ 1.6087, 45.6713 ], [ 1.6079, 45.6713 ], [ 1.6079, 45.6696 ], [ 1.6087, 45.6696 ], [ 1.6087, 45.6671 ], [ 1.6096, 45.6671 ], [ 1.6096, 45.6662 ], [ 1.6113, 45.6662 ], [ 1.6113, 45.6654 ], [ 1.6121, 45.6654 ], [ 1.6121, 45.6646 ], [ 1.6129, 45.6646 ], [ 1.6129, 45.6638 ], [ 1.6138, 45.6638 ], [ 1.6138, 45.6613 ], [ 1.6129, 45.6613 ], [ 1.6129, 45.6604 ], [ 1.6121, 45.6604 ], [ 1.6121, 45.6596 ], [ 1.6104, 45.6596 ], [ 1.6104, 45.6587 ], [ 1.6087, 45.6587 ], [ 1.6087, 45.6579 ], [ 1.6079, 45.6579 ], [ 1.6079, 45.6562 ], [ 1.6071, 45.6562 ], [ 1.6071, 45.6554 ], [ 1.6079, 45.6554 ], [ 1.6079, 45.6546 ], [ 1.6087, 45.6546 ], [ 1.6087, 45.6538 ], [ 1.6104, 45.6538 ], [ 1.6104, 45.6521 ], [ 1.6121, 45.6521 ], [ 1.6121, 45.6496 ], [ 1.6129, 45.6496 ], [ 1.6129, 45.6471 ], [ 1.6146, 45.6471 ], [ 1.6146, 45.6454 ], [ 1.6154, 45.6454 ], [ 1.6154, 45.6446 ], [ 1.6171, 45.6446 ], [ 1.6171, 45.6437 ], [ 1.6187, 45.6437 ], [ 1.6187, 45.6429 ], [ 1.6196, 45.6429 ], [ 1.6196, 45.6412 ], [ 1.6204, 45.6412 ], [ 1.6204, 45.6404 ], [ 1.6213, 45.6404 ], [ 1.6213, 45.6396 ], [ 1.6221, 45.6396 ], [ 1.6221, 45.6388 ], [ 1.6229, 45.6388 ], [ 1.6229, 45.6379 ], [ 1.6246, 45.6379 ], [ 1.6246, 45.6371 ], [ 1.6254, 45.6371 ], [ 1.6254, 45.6354 ], [ 1.6279, 45.6354 ], [ 1.6279, 45.6346 ], [ 1.6304, 45.6346 ], [ 1.6304, 45.6337 ], [ 1.6313, 45.6337 ], [ 1.6313, 45.6313 ], [ 1.6321, 45.6313 ], [ 1.6321, 45.6304 ], [ 1.6329, 45.6304 ], [ 1.6329, 45.6296 ], [ 1.6338, 45.6296 ], [ 1.6338, 45.6287 ], [ 1.6346, 45.6287 ], [ 1.6346, 45.6279 ], [ 1.6379, 45.6279 ], [ 1.6379, 45.6271 ], [ 1.6396, 45.6271 ], [ 1.6396, 45.6262 ], [ 1.6413, 45.6262 ], [ 1.6413, 45.6254 ], [ 1.6421, 45.6254 ], [ 1.6421, 45.6238 ], [ 1.6429, 45.6238 ], [ 1.6429, 45.6229 ], [ 1.6446, 45.6229 ], [ 1.6446, 45.6213 ], [ 1.6462, 45.6213 ], [ 1.6462, 45.6204 ], [ 1.6479, 45.6204 ], [ 1.6479, 45.6196 ], [ 1.6487, 45.6196 ], [ 1.6487, 45.6187 ], [ 1.6496, 45.6187 ], [ 1.6496, 45.6171 ], [ 1.6504, 45.6171 ], [ 1.6504, 45.6138 ], [ 1.6513, 45.6138 ], [ 1.6513, 45.6129 ], [ 1.6521, 45.6129 ], [ 1.6521, 45.6112 ], [ 1.6529, 45.6112 ], [ 1.6529, 45.6104 ], [ 1.6521, 45.6104 ], [ 1.6521, 45.6088 ], [ 1.6513, 45.6088 ], [ 1.6513, 45.6079 ], [ 1.6504, 45.6079 ], [ 1.6504, 45.6063 ], [ 1.6496, 45.6063 ], [ 1.6496, 45.6046 ], [ 1.6487, 45.6046 ], [ 1.6487, 45.6037 ], [ 1.6479, 45.6037 ], [ 1.6479, 45.6013 ], [ 1.6462, 45.6013 ], [ 1.6462, 45.6004 ], [ 1.6454, 45.6004 ], [ 1.6454, 45.5996 ], [ 1.6446, 45.5996 ], [ 1.6446, 45.5988 ], [ 1.6438, 45.5988 ], [ 1.6438, 45.5979 ], [ 1.6429, 45.5979 ], [ 1.6429, 45.5946 ], [ 1.6438, 45.5946 ], [ 1.6438, 45.5921 ], [ 1.6421, 45.5921 ], [ 1.6421, 45.5913 ], [ 1.6404, 45.5913 ], [ 1.6404, 45.5904 ], [ 1.6371, 45.5904 ], [ 1.6371, 45.5896 ], [ 1.6338, 45.5896 ], [ 1.6338, 45.5887 ], [ 1.6329, 45.5887 ], [ 1.6329, 45.5896 ], [ 1.6287, 45.5896 ], [ 1.6287, 45.5887 ], [ 1.6271, 45.5887 ], [ 1.6271, 45.5879 ], [ 1.6262, 45.5879 ], [ 1.6262, 45.5871 ], [ 1.6254, 45.5871 ], [ 1.6254, 45.5862 ], [ 1.6246, 45.5862 ], [ 1.6246, 45.5854 ], [ 1.6238, 45.5854 ], [ 1.6238, 45.5846 ], [ 1.6229, 45.5846 ], [ 1.6229, 45.5838 ], [ 1.6213, 45.5838 ], [ 1.6213, 45.5829 ], [ 1.6187, 45.5829 ], [ 1.6187, 45.5821 ], [ 1.6179, 45.5821 ], [ 1.6179, 45.5812 ], [ 1.6154, 45.5812 ], [ 1.6154, 45.5821 ], [ 1.6146, 45.5821 ], [ 1.6146, 45.5829 ], [ 1.6104, 45.5829 ], [ 1.6104, 45.5821 ], [ 1.6079, 45.5821 ], [ 1.6079, 45.5829 ], [ 1.6071, 45.5829 ], [ 1.6071, 45.5838 ], [ 1.6013, 45.5838 ], [ 1.6013, 45.5829 ], [ 1.6004, 45.5829 ], [ 1.6004, 45.5821 ], [ 1.5996, 45.5821 ], [ 1.5996, 45.5779 ], [ 1.5987, 45.5779 ], [ 1.5987, 45.5771 ], [ 1.5962, 45.5771 ], [ 1.5962, 45.5779 ], [ 1.5954, 45.5779 ], [ 1.5954, 45.5787 ], [ 1.5946, 45.5787 ], [ 1.5946, 45.5796 ], [ 1.5921, 45.5796 ], [ 1.5921, 45.5804 ], [ 1.5913, 45.5804 ], [ 1.5913, 45.5812 ], [ 1.5904, 45.5812 ], [ 1.5904, 45.5821 ], [ 1.5829, 45.5821 ], [ 1.5829, 45.5812 ], [ 1.5821, 45.5812 ], [ 1.5821, 45.5821 ], [ 1.5813, 45.5821 ], [ 1.5813, 45.5829 ], [ 1.5762, 45.5829 ], [ 1.5762, 45.5838 ], [ 1.5754, 45.5838 ], [ 1.5754, 45.5846 ], [ 1.5737, 45.5846 ], [ 1.5737, 45.5854 ], [ 1.5729, 45.5854 ], [ 1.5729, 45.5862 ], [ 1.5713, 45.5862 ], [ 1.5713, 45.5871 ], [ 1.5704, 45.5871 ], [ 1.5704, 45.5879 ], [ 1.5679, 45.5879 ], [ 1.5679, 45.5846 ], [ 1.5688, 45.5846 ], [ 1.5688, 45.5838 ], [ 1.5671, 45.5838 ], [ 1.5671, 45.5829 ], [ 1.5662, 45.5829 ], [ 1.5662, 45.5821 ], [ 1.5654, 45.5821 ], [ 1.5654, 45.5812 ], [ 1.5637, 45.5812 ], [ 1.5637, 45.5804 ], [ 1.5629, 45.5804 ], [ 1.5629, 45.5796 ], [ 1.5621, 45.5796 ], [ 1.5621, 45.5787 ], [ 1.5613, 45.5787 ], [ 1.5613, 45.5779 ], [ 1.5604, 45.5779 ], [ 1.5604, 45.5771 ], [ 1.5579, 45.5771 ], [ 1.5579, 45.5763 ], [ 1.5537, 45.5763 ], [ 1.5537, 45.5754 ], [ 1.5529, 45.5754 ], [ 1.5529, 45.5746 ], [ 1.5521, 45.5746 ], [ 1.5521, 45.5712 ], [ 1.5513, 45.5712 ], [ 1.5513, 45.5704 ], [ 1.5504, 45.5704 ], [ 1.5504, 45.5696 ], [ 1.5496, 45.5696 ], [ 1.5496, 45.5688 ], [ 1.5488, 45.5688 ], [ 1.5488, 45.5654 ], [ 1.5462, 45.5654 ], [ 1.5462, 45.5646 ], [ 1.5454, 45.5646 ], [ 1.5454, 45.5654 ], [ 1.5413, 45.5654 ], [ 1.5413, 45.5662 ], [ 1.5379, 45.5662 ], [ 1.5379, 45.5646 ], [ 1.5371, 45.5646 ], [ 1.5371, 45.5637 ], [ 1.5354, 45.5637 ], [ 1.5354, 45.5629 ], [ 1.5321, 45.5629 ], [ 1.5321, 45.5621 ], [ 1.5312, 45.5621 ], [ 1.5312, 45.5613 ], [ 1.5304, 45.5613 ], [ 1.5304, 45.5588 ], [ 1.5296, 45.5588 ], [ 1.5296, 45.5579 ], [ 1.5271, 45.5579 ], [ 1.5271, 45.5588 ], [ 1.5254, 45.5588 ], [ 1.5254, 45.5579 ], [ 1.5229, 45.5579 ], [ 1.5229, 45.5596 ], [ 1.5221, 45.5596 ], [ 1.5221, 45.5604 ], [ 1.5188, 45.5604 ], [ 1.5188, 45.5613 ], [ 1.5179, 45.5613 ], [ 1.5179, 45.5621 ], [ 1.5171, 45.5621 ], [ 1.5171, 45.5629 ], [ 1.5163, 45.5629 ], [ 1.5163, 45.5637 ], [ 1.5154, 45.5637 ], [ 1.5154, 45.5646 ], [ 1.5146, 45.5646 ], [ 1.5146, 45.5637 ], [ 1.5121, 45.5637 ], [ 1.5121, 45.5646 ], [ 1.5104, 45.5646 ], [ 1.5104, 45.5654 ], [ 1.5096, 45.5654 ], [ 1.5096, 45.5662 ], [ 1.5104, 45.5662 ], [ 1.5104, 45.5671 ], [ 1.5096, 45.5671 ], [ 1.5096, 45.5679 ], [ 1.5088, 45.5679 ], [ 1.5088, 45.5688 ], [ 1.5046, 45.5688 ], [ 1.5046, 45.5704 ], [ 1.5037, 45.5704 ], [ 1.5037, 45.5712 ], [ 1.5021, 45.5712 ], [ 1.5021, 45.5721 ], [ 1.4996, 45.5721 ], [ 1.4996, 45.5712 ], [ 1.4937, 45.5712 ], [ 1.4937, 45.5721 ], [ 1.4929, 45.5721 ], [ 1.4929, 45.5729 ], [ 1.4888, 45.5729 ], [ 1.4888, 45.5712 ], [ 1.4863, 45.5712 ], [ 1.4863, 45.5721 ], [ 1.4821, 45.5721 ], [ 1.4821, 45.5754 ], [ 1.4812, 45.5754 ], [ 1.4812, 45.5763 ], [ 1.4804, 45.5763 ], [ 1.4804, 45.5771 ], [ 1.4796, 45.5771 ], [ 1.4796, 45.5779 ], [ 1.4788, 45.5779 ], [ 1.4788, 45.5787 ], [ 1.4779, 45.5787 ], [ 1.4779, 45.5796 ], [ 1.4771, 45.5796 ], [ 1.4771, 45.5804 ], [ 1.4763, 45.5804 ], [ 1.4763, 45.5796 ], [ 1.4721, 45.5796 ], [ 1.4721, 45.5804 ], [ 1.4704, 45.5804 ], [ 1.4704, 45.5812 ], [ 1.4679, 45.5812 ], [ 1.4679, 45.5821 ], [ 1.4663, 45.5821 ], [ 1.4663, 45.5829 ], [ 1.4638, 45.5829 ], [ 1.4638, 45.5838 ], [ 1.4629, 45.5838 ], [ 1.4629, 45.5846 ], [ 1.4621, 45.5846 ], [ 1.4621, 45.5854 ], [ 1.4612, 45.5854 ], [ 1.4612, 45.5879 ], [ 1.4604, 45.5879 ], [ 1.4604, 45.5887 ], [ 1.4587, 45.5887 ], [ 1.4587, 45.5896 ], [ 1.4571, 45.5896 ], [ 1.4571, 45.5904 ], [ 1.4563, 45.5904 ], [ 1.4563, 45.5921 ], [ 1.4554, 45.5921 ], [ 1.4554, 45.5938 ], [ 1.4546, 45.5938 ], [ 1.4546, 45.5946 ], [ 1.4521, 45.5946 ], [ 1.4521, 45.5954 ], [ 1.4479, 45.5954 ], [ 1.4479, 45.5971 ], [ 1.4487, 45.5971 ], [ 1.4487, 45.5996 ], [ 1.4496, 45.5996 ], [ 1.4496, 45.6004 ], [ 1.4487, 45.6004 ], [ 1.4487, 45.6013 ], [ 1.4479, 45.6013 ], [ 1.4479, 45.6029 ], [ 1.4463, 45.6029 ], [ 1.4463, 45.6037 ], [ 1.4438, 45.6037 ], [ 1.4438, 45.6046 ], [ 1.4354, 45.6046 ], [ 1.4354, 45.6063 ], [ 1.4346, 45.6063 ], [ 1.4346, 45.6071 ], [ 1.4338, 45.6071 ], [ 1.4338, 45.6079 ], [ 1.4329, 45.6079 ], [ 1.4329, 45.6071 ], [ 1.4279, 45.6071 ], [ 1.4279, 45.6088 ], [ 1.4263, 45.6088 ], [ 1.4263, 45.6079 ], [ 1.4254, 45.6079 ], [ 1.4254, 45.6063 ], [ 1.4246, 45.6063 ], [ 1.4246, 45.6054 ], [ 1.4238, 45.6054 ], [ 1.4238, 45.6037 ], [ 1.4221, 45.6037 ], [ 1.4221, 45.6004 ], [ 1.4212, 45.6004 ], [ 1.4212, 45.5996 ], [ 1.4221, 45.5996 ], [ 1.4221, 45.5988 ], [ 1.4212, 45.5988 ], [ 1.4212, 45.5971 ], [ 1.4204, 45.5971 ], [ 1.4204, 45.5962 ], [ 1.4196, 45.5962 ], [ 1.4196, 45.5954 ], [ 1.4187, 45.5954 ], [ 1.4187, 45.5946 ], [ 1.4196, 45.5946 ], [ 1.4196, 45.5921 ], [ 1.4187, 45.5921 ], [ 1.4187, 45.5913 ], [ 1.4171, 45.5913 ], [ 1.4171, 45.5904 ], [ 1.4163, 45.5904 ], [ 1.4163, 45.5913 ], [ 1.4138, 45.5913 ], [ 1.4138, 45.5921 ], [ 1.4129, 45.5921 ], [ 1.4129, 45.5913 ], [ 1.4079, 45.5913 ], [ 1.4079, 45.5921 ], [ 1.4054, 45.5921 ], [ 1.4054, 45.5929 ], [ 1.4038, 45.5929 ], [ 1.4038, 45.5921 ], [ 1.3996, 45.5921 ], [ 1.3996, 45.5913 ], [ 1.3987, 45.5913 ], [ 1.3987, 45.5904 ], [ 1.3971, 45.5904 ], [ 1.3971, 45.5896 ], [ 1.3921, 45.5896 ], [ 1.3921, 45.5887 ], [ 1.3913, 45.5887 ], [ 1.3913, 45.5879 ], [ 1.3896, 45.5879 ], [ 1.3896, 45.5871 ], [ 1.3887, 45.5871 ], [ 1.3887, 45.5862 ], [ 1.3871, 45.5862 ], [ 1.3871, 45.5854 ], [ 1.3862, 45.5854 ], [ 1.3862, 45.5846 ], [ 1.3846, 45.5846 ], [ 1.3846, 45.5838 ], [ 1.3813, 45.5838 ], [ 1.3813, 45.5829 ], [ 1.3804, 45.5829 ], [ 1.3804, 45.5796 ], [ 1.3813, 45.5796 ], [ 1.3813, 45.5779 ], [ 1.3821, 45.5779 ], [ 1.3821, 45.5754 ], [ 1.3746, 45.5754 ], [ 1.3746, 45.5746 ], [ 1.3738, 45.5746 ], [ 1.3738, 45.5737 ], [ 1.3729, 45.5737 ], [ 1.3729, 45.5729 ], [ 1.3713, 45.5729 ], [ 1.3713, 45.5721 ], [ 1.3679, 45.5721 ], [ 1.3679, 45.5729 ], [ 1.3671, 45.5729 ], [ 1.3671, 45.5754 ], [ 1.3679, 45.5754 ], [ 1.3679, 45.5763 ], [ 1.3671, 45.5763 ], [ 1.3671, 45.5779 ], [ 1.3662, 45.5779 ], [ 1.3662, 45.5796 ], [ 1.3654, 45.5796 ], [ 1.3654, 45.5812 ], [ 1.3587, 45.5812 ], [ 1.3587, 45.5821 ], [ 1.3579, 45.5821 ], [ 1.3579, 45.5829 ], [ 1.3562, 45.5829 ], [ 1.3562, 45.5838 ], [ 1.3554, 45.5838 ], [ 1.3554, 45.5846 ], [ 1.3546, 45.5846 ], [ 1.3546, 45.5854 ], [ 1.3538, 45.5854 ], [ 1.3538, 45.5862 ], [ 1.3529, 45.5862 ], [ 1.3529, 45.5871 ], [ 1.3521, 45.5871 ], [ 1.3521, 45.5862 ], [ 1.3513, 45.5862 ], [ 1.3513, 45.5854 ], [ 1.3504, 45.5854 ], [ 1.3504, 45.5846 ], [ 1.3496, 45.5846 ], [ 1.3496, 45.5838 ], [ 1.3487, 45.5838 ], [ 1.3487, 45.5829 ], [ 1.3479, 45.5829 ], [ 1.3479, 45.5821 ], [ 1.3454, 45.5821 ], [ 1.3454, 45.5812 ], [ 1.3446, 45.5812 ], [ 1.3446, 45.5804 ], [ 1.3429, 45.5804 ], [ 1.3429, 45.5787 ], [ 1.3421, 45.5787 ], [ 1.3421, 45.5779 ], [ 1.3413, 45.5779 ], [ 1.3413, 45.5763 ], [ 1.3404, 45.5763 ], [ 1.3404, 45.5754 ], [ 1.3304, 45.5754 ], [ 1.3304, 45.5763 ], [ 1.3271, 45.5763 ], [ 1.3271, 45.5754 ], [ 1.3246, 45.5754 ], [ 1.3246, 45.5746 ], [ 1.3229, 45.5746 ], [ 1.3229, 45.5737 ], [ 1.3196, 45.5737 ], [ 1.3196, 45.5721 ], [ 1.3188, 45.5721 ], [ 1.3188, 45.5737 ], [ 1.3154, 45.5737 ], [ 1.3154, 45.5746 ], [ 1.3129, 45.5746 ], [ 1.3129, 45.5754 ], [ 1.3121, 45.5754 ], [ 1.3121, 45.5763 ], [ 1.3113, 45.5763 ], [ 1.3113, 45.5771 ], [ 1.3096, 45.5771 ], [ 1.3096, 45.5787 ], [ 1.3062, 45.5787 ], [ 1.3062, 45.5796 ], [ 1.3054, 45.5796 ], [ 1.3054, 45.5804 ], [ 1.3046, 45.5804 ], [ 1.3046, 45.5796 ], [ 1.3037, 45.5796 ], [ 1.3037, 45.5804 ], [ 1.3029, 45.5804 ], [ 1.3029, 45.5796 ], [ 1.2888, 45.5796 ], [ 1.2888, 45.5804 ], [ 1.2871, 45.5804 ], [ 1.2871, 45.5812 ], [ 1.2862, 45.5812 ], [ 1.2862, 45.5821 ], [ 1.2854, 45.5821 ], [ 1.2854, 45.5829 ], [ 1.2837, 45.5829 ], [ 1.2837, 45.5838 ], [ 1.2812, 45.5838 ], [ 1.2812, 45.5846 ], [ 1.2821, 45.5846 ], [ 1.2821, 45.5854 ], [ 1.2829, 45.5854 ], [ 1.2829, 45.5871 ], [ 1.2821, 45.5871 ], [ 1.2821, 45.5879 ], [ 1.2812, 45.5879 ], [ 1.2812, 45.5887 ], [ 1.2804, 45.5887 ], [ 1.2804, 45.5904 ], [ 1.2771, 45.5904 ], [ 1.2771, 45.5913 ], [ 1.2763, 45.5913 ], [ 1.2763, 45.5929 ], [ 1.2754, 45.5929 ], [ 1.2754, 45.5938 ], [ 1.2737, 45.5938 ], [ 1.2737, 45.5954 ], [ 1.2729, 45.5954 ], [ 1.2729, 45.5962 ], [ 1.2712, 45.5962 ], [ 1.2712, 45.5988 ], [ 1.2704, 45.5988 ], [ 1.2704, 45.6021 ], [ 1.2696, 45.6021 ], [ 1.2696, 45.6029 ], [ 1.2688, 45.6029 ], [ 1.2688, 45.6063 ], [ 1.2679, 45.6063 ], [ 1.2679, 45.6071 ], [ 1.2654, 45.6071 ], [ 1.2654, 45.6079 ], [ 1.2646, 45.6079 ], [ 1.2646, 45.6088 ], [ 1.2621, 45.6088 ], [ 1.2621, 45.6079 ], [ 1.2612, 45.6079 ], [ 1.2612, 45.6088 ], [ 1.2596, 45.6088 ], [ 1.2596, 45.6096 ], [ 1.2588, 45.6096 ], [ 1.2588, 45.6104 ], [ 1.2563, 45.6104 ], [ 1.2563, 45.6112 ], [ 1.2554, 45.6112 ], [ 1.2554, 45.6129 ], [ 1.2546, 45.6129 ], [ 1.2546, 45.6146 ], [ 1.2529, 45.6146 ], [ 1.2529, 45.6138 ], [ 1.2521, 45.6138 ], [ 1.2521, 45.6146 ], [ 1.2488, 45.6146 ], [ 1.2488, 45.6154 ], [ 1.2479, 45.6154 ], [ 1.2479, 45.6146 ], [ 1.2463, 45.6146 ], [ 1.2463, 45.6154 ], [ 1.2421, 45.6154 ], [ 1.2421, 45.6179 ], [ 1.2388, 45.6179 ], [ 1.2388, 45.6187 ], [ 1.2379, 45.6187 ], [ 1.2379, 45.6196 ], [ 1.2388, 45.6196 ], [ 1.2388, 45.6238 ], [ 1.2379, 45.6238 ], [ 1.2379, 45.6246 ], [ 1.2337, 45.6246 ], [ 1.2337, 45.6254 ], [ 1.2329, 45.6254 ], [ 1.2329, 45.6271 ], [ 1.2321, 45.6271 ], [ 1.2321, 45.6279 ], [ 1.2312, 45.6279 ], [ 1.2312, 45.6287 ], [ 1.2304, 45.6287 ], [ 1.2304, 45.6304 ], [ 1.2296, 45.6304 ], [ 1.2296, 45.6346 ], [ 1.2288, 45.6346 ], [ 1.2288, 45.6371 ], [ 1.2279, 45.6371 ], [ 1.2279, 45.6379 ], [ 1.2271, 45.6379 ], [ 1.2271, 45.6388 ], [ 1.2279, 45.6388 ], [ 1.2279, 45.6437 ], [ 1.2271, 45.6437 ], [ 1.2271, 45.6454 ], [ 1.2263, 45.6454 ], [ 1.2263, 45.6463 ], [ 1.2237, 45.6463 ], [ 1.2237, 45.6479 ], [ 1.2246, 45.6479 ], [ 1.2246, 45.6487 ], [ 1.2254, 45.6487 ], [ 1.2254, 45.6512 ], [ 1.2246, 45.6512 ], [ 1.2246, 45.6538 ], [ 1.2237, 45.6538 ], [ 1.2237, 45.6546 ], [ 1.2229, 45.6546 ], [ 1.2229, 45.6554 ], [ 1.2221, 45.6554 ], [ 1.2221, 45.6562 ], [ 1.2212, 45.6562 ], [ 1.2212, 45.6571 ], [ 1.2196, 45.6571 ], [ 1.2196, 45.6579 ], [ 1.2163, 45.6579 ], [ 1.2163, 45.6596 ], [ 1.2154, 45.6596 ], [ 1.2154, 45.6621 ], [ 1.2146, 45.6621 ], [ 1.2146, 45.6638 ], [ 1.2154, 45.6638 ], [ 1.2154, 45.6646 ], [ 1.2163, 45.6646 ], [ 1.2163, 45.6688 ], [ 1.2154, 45.6688 ], [ 1.2154, 45.6704 ], [ 1.2163, 45.6704 ], [ 1.2163, 45.6737 ], [ 1.2188, 45.6737 ], [ 1.2188, 45.6763 ], [ 1.2196, 45.6763 ], [ 1.2196, 45.6771 ], [ 1.2204, 45.6771 ], [ 1.2204, 45.6779 ], [ 1.2229, 45.6779 ], [ 1.2229, 45.6804 ], [ 1.2237, 45.6804 ], [ 1.2237, 45.6812 ], [ 1.2254, 45.6812 ], [ 1.2254, 45.6821 ], [ 1.2263, 45.6821 ], [ 1.2263, 45.6838 ], [ 1.2271, 45.6838 ], [ 1.2271, 45.6854 ], [ 1.2263, 45.6854 ], [ 1.2263, 45.6887 ], [ 1.2271, 45.6887 ], [ 1.2271, 45.6904 ], [ 1.2279, 45.6904 ], [ 1.2279, 45.6912 ], [ 1.2304, 45.6912 ], [ 1.2304, 45.6921 ], [ 1.2321, 45.6921 ], [ 1.2321, 45.6938 ], [ 1.2329, 45.6938 ], [ 1.2329, 45.6946 ], [ 1.2337, 45.6946 ], [ 1.2337, 45.6954 ], [ 1.2329, 45.6954 ], [ 1.2329, 45.6962 ], [ 1.2337, 45.6962 ], [ 1.2337, 45.6987 ], [ 1.2329, 45.6987 ], [ 1.2329, 45.7013 ], [ 1.2321, 45.7013 ], [ 1.2321, 45.7046 ], [ 1.2312, 45.7046 ], [ 1.2312, 45.7054 ], [ 1.2329, 45.7054 ], [ 1.2329, 45.7096 ], [ 1.2337, 45.7096 ], [ 1.2337, 45.7104 ], [ 1.2346, 45.7104 ], [ 1.2346, 45.7121 ], [ 1.2354, 45.7121 ], [ 1.2354, 45.7129 ], [ 1.2363, 45.7129 ], [ 1.2363, 45.7137 ], [ 1.2354, 45.7137 ], [ 1.2354, 45.7146 ], [ 1.2363, 45.7146 ], [ 1.2363, 45.7154 ], [ 1.2371, 45.7154 ], [ 1.2371, 45.7163 ], [ 1.2379, 45.7163 ], [ 1.2379, 45.7171 ], [ 1.2388, 45.7171 ], [ 1.2388, 45.7179 ], [ 1.2412, 45.7179 ], [ 1.2412, 45.7204 ], [ 1.2429, 45.7204 ], [ 1.2429, 45.7212 ], [ 1.2429, 45.7212 ] ], [ [ 1.5121, 45.6629 ], [ 1.5121, 45.6621 ], [ 1.5129, 45.6621 ], [ 1.5129, 45.6629 ], [ 1.5121, 45.6629 ] ], [ [ 1.3529, 45.6954 ], [ 1.3529, 45.6962 ], [ 1.3521, 45.6962 ], [ 1.3521, 45.6954 ], [ 1.3529, 45.6954 ] ] ] } }
]
}
